HULIANWANG DIGUI-81     
1 65313U 25187J   26063.62952461 -.00000100  00000+0  52476-4 0  9992
2 65313  50.0055 220.8249 0001060 135.1098 224.9860 13.29341332 25803
HULIANWANG DIGUI-82     
1 65817U 25220A   26063.60577987  .00000057  00000+0  97624-4 0  9997
2 65817  86.4897  79.1838 0002248 101.4204 258.7183 13.24421786 21077
HULIANWANG DIGUI-83     
1 65818U 25220B   26063.59827401  .00000063  00000+0  11287-3 0  9992
2 65818  86.4919  79.2165 0002240 101.1661 258.9725 13.24420979 21070
HULIANWANG DIGUI-84     
1 65819U 25220C   26063.59069236  .00000055  00000+0  94920-4 0  9994
2 65819  86.4856  79.1105 0002235 100.3652 259.7735 13.24421404 21073
HULIANWANG DIGUI-85     
1 65820U 25220D   26063.58309166  .00000048  00000+0  78716-4 0  9991
2 65820  86.4917  79.2068 0002228 101.6130 258.5255 13.24421943 21071
HULIANWANG DIGUI-86     
1 65821U 25220E   26063.57562414  .00000031  00000+0  37224-4 0  9999
2 65821  86.4896  79.1681 0002224 101.4240 258.7144 13.24420782 21073
HULIANWANG DIGUI-87     
1 65995U 25231A   26063.59073724 -.00000101  00000+0  48698-4 0  9992
2 65995  49.9990 191.0119 0000608 180.2832 179.8040 13.29330235 18971
HULIANWANG DIGUI-88     
1 65996U 25231B   26063.59911262 -.00000100  00000+0  52398-4 0  9992
2 65996  49.9976 191.0418 0000628 186.2196 173.8668 13.29329296 18974
HULIANWANG DIGUI-89     
1 65997U 25231C   26063.58238157 -.00000105  00000+0  40998-4 0  9995
2 65997  49.9954 190.9292 0000640 187.0438 173.0425 13.29329855 18975
HULIANWANG DIGUI-90     
1 65998U 25231D   26063.34849004 -.00000104  00000+0  43386-4 0  9992
2 65998  49.9982 191.7278 0000609 186.2879 173.7985 13.29330032 18949
HULIANWANG DIGUI-91     
1 65999U 25231E   26063.56567603 -.00000095  00000+0  62497-4 0  9992
2 65999  50.0002 190.8994 0000633 185.2945 174.7921 13.29329983 18978
HULIANWANG DIGUI-92     
1 66000U 25231F   26063.55731264 -.00000095  00000+0  61951-4 0  9995
2 66000  50.0043 190.9009 0000627 186.0269 174.0595 13.29330494 18975
HULIANWANG DIGUI-93     
1 66001U 25231G   26063.54063972 -.00000099  00000+0  53333-4 0  9998
2 66001  50.0010 190.7813 0000606 185.1804 174.9062 13.29329591 18977
HULIANWANG DIGUI-94     
1 66002U 25231H   26063.54896128 -.00000093  00000+0  66005-4 0  9990
2 66002  50.0049 190.8690 0000632 187.0990 172.9873 13.29330759 18976
HULIANWANG DIGUI-95     
1 66003U 25231J   26063.53242800 -.00000094  00000+0  64293-4 0  9990
2 66003  50.0022 190.7527 0000629 183.4989 176.5879 13.29325744 18974
HULIANWANG DIGUI-96     
1 66412U 25258A   26063.02966000 -.00000046  00000+0  16763-3 0  9997
2 66412  50.0052 312.7899 0000381  92.4860 267.6056 13.29331330 15740
