[{"OBJECT_NAME":"HULIANWANG DIGUI-81","OBJECT_ID":"2025-187J","EPOCH":"2026-03-04T15:06:30.926304","MEAN_MOTION":13.29341332,"ECCENTRICITY":0.00010609,"INCLINATION":50.0055,"RA_OF_ASC_NODE":220.8249,"ARG_OF_PERICENTER":135.1098,"MEAN_ANOMALY":224.986,"EPHEMERIS_TYPE":0,"CLASSIFICATION_TYPE":"U","NORAD_CAT_ID":65313,"ELEMENT_SET_NO":999,"REV_AT_EPOCH":2580,"BSTAR":5.2476038e-5,"MEAN_MOTION_DOT":-1.0e-6,"MEAN_MOTION_DDOT":0},{"OBJECT_NAME":"HULIANWANG DIGUI-82","OBJECT_ID":"2025-220A","EPOCH":"2026-03-04T14:32:19.380768","MEAN_MOTION":13.24421786,"ECCENTRICITY":0.00022486,"INCLINATION":86.4897,"RA_OF_ASC_NODE":79.1838,"ARG_OF_PERICENTER":101.4204,"MEAN_ANOMALY":258.7183,"EPHEMERIS_TYPE":0,"CLASSIFICATION_TYPE":"U","NORAD_CAT_ID":65817,"ELEMENT_SET_NO":999,"REV_AT_EPOCH":2107,"BSTAR":9.7624058e-5,"MEAN_MOTION_DOT":5.7e-7,"MEAN_MOTION_DDOT":0},{"OBJECT_NAME":"HULIANWANG DIGUI-83","OBJECT_ID":"2025-220B","EPOCH":"2026-03-04T14:21:30.874464","MEAN_MOTION":13.24420979,"ECCENTRICITY":0.00022404,"INCLINATION":86.4919,"RA_OF_ASC_NODE":79.2165,"ARG_OF_PERICENTER":101.1661,"MEAN_ANOMALY":258.9725,"EPHEMERIS_TYPE":0,"CLASSIFICATION_TYPE":"U","NORAD_CAT_ID":65818,"ELEMENT_SET_NO":999,"REV_AT_EPOCH":2107,"BSTAR":0.0001128698,"MEAN_MOTION_DOT":6.3e-7,"MEAN_MOTION_DDOT":0},{"OBJECT_NAME":"HULIANWANG DIGUI-84","OBJECT_ID":"2025-220C","EPOCH":"2026-03-04T14:10:35.819904","MEAN_MOTION":13.24421404,"ECCENTRICITY":0.00022353,"INCLINATION":86.4856,"RA_OF_ASC_NODE":79.1105,"ARG_OF_PERICENTER":100.3652,"MEAN_ANOMALY":259.7735,"EPHEMERIS_TYPE":0,"CLASSIFICATION_TYPE":"U","NORAD_CAT_ID":65819,"ELEMENT_SET_NO":999,"REV_AT_EPOCH":2107,"BSTAR":9.4920019e-5,"MEAN_MOTION_DOT":5.5e-7,"MEAN_MOTION_DDOT":0},{"OBJECT_NAME":"HULIANWANG DIGUI-85","OBJECT_ID":"2025-220D","EPOCH":"2026-03-04T13:59:39.119424","MEAN_MOTION":13.24421943,"ECCENTRICITY":0.00022282,"INCLINATION":86.4917,"RA_OF_ASC_NODE":79.2068,"ARG_OF_PERICENTER":101.613,"MEAN_ANOMALY":258.5255,"EPHEMERIS_TYPE":0,"CLASSIFICATION_TYPE":"U","NORAD_CAT_ID":65820,"ELEMENT_SET_NO":999,"REV_AT_EPOCH":2107,"BSTAR":7.871643e-5,"MEAN_MOTION_DOT":4.8e-7,"MEAN_MOTION_DDOT":0},{"OBJECT_NAME":"HULIANWANG DIGUI-86","OBJECT_ID":"2025-220E","EPOCH":"2026-03-04T13:48:53.925696","MEAN_MOTION":13.24420782,"ECCENTRICITY":0.0002224,"INCLINATION":86.4896,"RA_OF_ASC_NODE":79.1681,"ARG_OF_PERICENTER":101.424,"MEAN_ANOMALY":258.7144,"EPHEMERIS_TYPE":0,"CLASSIFICATION_TYPE":"U","NORAD_CAT_ID":65821,"ELEMENT_SET_NO":999,"REV_AT_EPOCH":2107,"BSTAR":3.7224281e-5,"MEAN_MOTION_DOT":3.1e-7,"MEAN_MOTION_DDOT":0},{"OBJECT_NAME":"HULIANWANG DIGUI-87","OBJECT_ID":"2025-231A","EPOCH":"2026-03-04T14:10:39.697536","MEAN_MOTION":13.29330235,"ECCENTRICITY":6.087e-5,"INCLINATION":49.999,"RA_OF_ASC_NODE":191.0119,"ARG_OF_PERICENTER":180.2832,"MEAN_ANOMALY":179.804,"EPHEMERIS_TYPE":0,"CLASSIFICATION_TYPE":"U","NORAD_CAT_ID":65995,"ELEMENT_SET_NO":999,"REV_AT_EPOCH":1897,"BSTAR":4.8698272e-5,"MEAN_MOTION_DOT":-1.01e-6,"MEAN_MOTION_DDOT":0},{"OBJECT_NAME":"HULIANWANG DIGUI-88","OBJECT_ID":"2025-231B","EPOCH":"2026-03-04T14:22:43.330368","MEAN_MOTION":13.29329296,"ECCENTRICITY":6.286e-5,"INCLINATION":49.9976,"RA_OF_ASC_NODE":191.0418,"ARG_OF_PERICENTER":186.2196,"MEAN_ANOMALY":173.8668,"EPHEMERIS_TYPE":0,"CLASSIFICATION_TYPE":"U","NORAD_CAT_ID":65996,"ELEMENT_SET_NO":999,"REV_AT_EPOCH":1897,"BSTAR":5.2397609e-5,"MEAN_MOTION_DOT":-1.0e-6,"MEAN_MOTION_DDOT":0},{"OBJECT_NAME":"HULIANWANG DIGUI-89","OBJECT_ID":"2025-231C","EPOCH":"2026-03-04T13:58:37.767648","MEAN_MOTION":13.29329855,"ECCENTRICITY":6.403e-5,"INCLINATION":49.9954,"RA_OF_ASC_NODE":190.9292,"ARG_OF_PERICENTER":187.0438,"MEAN_ANOMALY":173.0425,"EPHEMERIS_TYPE":0,"CLASSIFICATION_TYPE":"U","NORAD_CAT_ID":65997,"ELEMENT_SET_NO":999,"REV_AT_EPOCH":1897,"BSTAR":4.0997503e-5,"MEAN_MOTION_DOT":-1.05e-6,"MEAN_MOTION_DDOT":0},{"OBJECT_NAME":"HULIANWANG DIGUI-90","OBJECT_ID":"2025-231D","EPOCH":"2026-03-04T08:21:49.539456","MEAN_MOTION":13.29330032,"ECCENTRICITY":6.095e-5,"INCLINATION":49.9982,"RA_OF_ASC_NODE":191.7278,"ARG_OF_PERICENTER":186.2879,"MEAN_ANOMALY":173.7985,"EPHEMERIS_TYPE":0,"CLASSIFICATION_TYPE":"U","NORAD_CAT_ID":65998,"ELEMENT_SET_NO":999,"REV_AT_EPOCH":1894,"BSTAR":4.3385925e-5,"MEAN_MOTION_DOT":-1.04e-6,"MEAN_MOTION_DDOT":0},{"OBJECT_NAME":"HULIANWANG DIGUI-91","OBJECT_ID":"2025-231E","EPOCH":"2026-03-04T13:34:34.408992","MEAN_MOTION":13.29329983,"ECCENTRICITY":6.33e-5,"INCLINATION":50.0002,"RA_OF_ASC_NODE":190.8994,"ARG_OF_PERICENTER":185.2945,"MEAN_ANOMALY":174.7921,"EPHEMERIS_TYPE":0,"CLASSIFICATION_TYPE":"U","NORAD_CAT_ID":65999,"ELEMENT_SET_NO":999,"REV_AT_EPOCH":1897,"BSTAR":6.2496996e-5,"MEAN_MOTION_DOT":-9.5e-7,"MEAN_MOTION_DDOT":0},{"OBJECT_NAME":"HULIANWANG DIGUI-92","OBJECT_ID":"2025-231F","EPOCH":"2026-03-04T13:22:31.812096","MEAN_MOTION":13.29330494,"ECCENTRICITY":6.271e-5,"INCLINATION":50.0043,"RA_OF_ASC_NODE":190.9009,"ARG_OF_PERICENTER":186.0269,"MEAN_ANOMALY":174.0595,"EPHEMERIS_TYPE":0,"CLASSIFICATION_TYPE":"U","NORAD_CAT_ID":66000,"ELEMENT_SET_NO":999,"REV_AT_EPOCH":1897,"BSTAR":6.1951042e-5,"MEAN_MOTION_DOT":-9.5e-7,"MEAN_MOTION_DDOT":0},{"OBJECT_NAME":"HULIANWANG DIGUI-93","OBJECT_ID":"2025-231G","EPOCH":"2026-03-04T12:58:31.271808","MEAN_MOTION":13.29329591,"ECCENTRICITY":6.069e-5,"INCLINATION":50.001,"RA_OF_ASC_NODE":190.7813,"ARG_OF_PERICENTER":185.1804,"MEAN_ANOMALY":174.9062,"EPHEMERIS_TYPE":0,"CLASSIFICATION_TYPE":"U","NORAD_CAT_ID":66001,"ELEMENT_SET_NO":999,"REV_AT_EPOCH":1897,"BSTAR":5.3332969e-5,"MEAN_MOTION_DOT":-9.9e-7,"MEAN_MOTION_DDOT":0},{"OBJECT_NAME":"HULIANWANG DIGUI-94","OBJECT_ID":"2025-231H","EPOCH":"2026-03-04T13:10:30.254592","MEAN_MOTION":13.29330759,"ECCENTRICITY":6.321e-5,"INCLINATION":50.0049,"RA_OF_ASC_NODE":190.869,"ARG_OF_PERICENTER":187.099,"MEAN_ANOMALY":172.9873,"EPHEMERIS_TYPE":0,"CLASSIFICATION_TYPE":"U","NORAD_CAT_ID":66002,"ELEMENT_SET_NO":999,"REV_AT_EPOCH":1897,"BSTAR":6.6005207e-5,"MEAN_MOTION_DOT":-9.3e-7,"MEAN_MOTION_DDOT":0},{"OBJECT_NAME":"HULIANWANG DIGUI-95","OBJECT_ID":"2025-231J","EPOCH":"2026-03-04T12:46:41.779200","MEAN_MOTION":13.29325744,"ECCENTRICITY":6.299e-5,"INCLINATION":50.0022,"RA_OF_ASC_NODE":190.7527,"ARG_OF_PERICENTER":183.4989,"MEAN_ANOMALY":176.5879,"EPHEMERIS_TYPE":0,"CLASSIFICATION_TYPE":"U","NORAD_CAT_ID":66003,"ELEMENT_SET_NO":999,"REV_AT_EPOCH":1897,"BSTAR":6.4293285e-5,"MEAN_MOTION_DOT":-9.4e-7,"MEAN_MOTION_DDOT":0},{"OBJECT_NAME":"HULIANWANG DIGUI-96","OBJECT_ID":"2025-258A","EPOCH":"2026-03-04T00:42:42.624000","MEAN_MOTION":13.2933133,"ECCENTRICITY":3.811e-5,"INCLINATION":50.0052,"RA_OF_ASC_NODE":312.7899,"ARG_OF_PERICENTER":92.486,"MEAN_ANOMALY":267.6056,"EPHEMERIS_TYPE":0,"CLASSIFICATION_TYPE":"U","NORAD_CAT_ID":66412,"ELEMENT_SET_NO":999,"REV_AT_EPOCH":1574,"BSTAR":0.00016763318,"MEAN_MOTION_DOT":-4.6e-7,"MEAN_MOTION_DDOT":0}]
